{
  "type": "FeatureCollection",
  "features": [
    {
      "type": "Feature",
      "properties": {
        "norad_id": 32376,
        "name": "COSMO-SKYMED 2",
        "group": "resource",
        "lat": 34.885365579468306,
        "lon": -7.739579964531117,
        "alt_km": 619.6927812264885,
        "timestamp": "2025-12-11T08:58:26.770787+00:00",
        "meta_object_name": "COSMO-SKYMED 2",
        "meta_object_id": "2007-059A",
        "meta_epoch": "2025-12-11T03:27:47.120832",
        "meta_mean_motion": 14.82163049,
        "meta_eccentricity": 0.0001524,
        "meta_inclination": 97.8811,
        "meta_ra_of_asc_node": 166.4921,
        "meta_arg_of_pericenter": 85.1413,
        "meta_mean_anomaly": 274.9974,
        "meta_ephemeris_type": 0,
        "meta_classification_type": "U",
        "meta_norad_cat_id": 32376,
        "meta_element_set_no": 999,
        "meta_rev_at_epoch": 97414,
        "meta_bstar": 0.0001181,
        "meta_mean_motion_dot": 8.88e-06,
        "meta_mean_motion_ddot": 0,
        "tle_line1": "1 32376U 07059A   25345.14429538  .00000888  00000+0  11810-3 0  9994",
        "tle_line2": "2 32376  97.8811 166.4921 0001524  85.1413 274.9974 14.82163049974145"
      },
      "geometry": {
        "type": "Point",
        "coordinates": [
          -7.739579964531117,
          34.885365579468306
        ]
      }
    },
    {
      "type": "Feature",
      "properties": {
        "norad_id": 32382,
        "name": "RADARSAT-2",
        "group": "resource",
        "lat": -10.336001200608909,
        "lon": -8.438529685949987,
        "alt_km": 796.0621538015266,
        "timestamp": "2025-12-11T08:58:26.770799+00:00",
        "meta_object_name": "RADARSAT-2",
        "meta_object_id": "2007-061A",
        "meta_epoch": "2025-12-11T03:59:05.849088",
        "meta_mean_motion": 14.29980187,
        "meta_eccentricity": 0.0001104,
        "meta_inclination": 98.5799,
        "meta_ra_of_asc_node": 349.7788,
        "meta_arg_of_pericenter": 86.7193,
        "meta_mean_anomaly": 273.4115,
        "meta_ephemeris_type": 0,
        "meta_classification_type": "U",
        "meta_norad_cat_id": 32382,
        "meta_element_set_no": 999,
        "meta_rev_at_epoch": 93908,
        "meta_bstar": -9.2927e-05,
        "meta_mean_motion_dot": -2.83e-06,
        "meta_mean_motion_ddot": 0,
        "tle_line1": "1 32382U 07061A   25345.16603992 -.00000283  00000+0 -92927-4 0  9994",
        "tle_line2": "2 32382  98.5799 349.7788 0001104  86.7193 273.4115 14.29980187939084"
      },
      "geometry": {
        "type": "Point",
        "coordinates": [
          -8.438529685949987,
          -10.336001200608909
        ]
      }
    },
    {
      "type": "Feature",
      "properties": {
        "norad_id": 32783,
        "name": "CARTOSAT-2A",
        "group": "resource",
        "lat": -59.11444132341492,
        "lon": 48.47512350416704,
        "alt_km": 636.7875541829699,
        "timestamp": "2025-12-11T08:58:26.770810+00:00",
        "meta_object_name": "CARTOSAT-2A",
        "meta_object_id": "2008-021A",
        "meta_epoch": "2025-12-11T04:22:23.707776",
        "meta_mean_motion": 14.78933201,
        "meta_eccentricity": 0.0012025,
        "meta_inclination": 97.7928,
        "meta_ra_of_asc_node": 35.054,
        "meta_arg_of_pericenter": 9.5945,
        "meta_mean_anomaly": 350.5494,
        "meta_ephemeris_type": 0,
        "meta_classification_type": "U",
        "meta_norad_cat_id": 32783,
        "meta_element_set_no": 999,
        "meta_rev_at_epoch": 95101,
        "meta_bstar": 0.00021812,
        "meta_mean_motion_dot": 1.56e-05,
        "meta_mean_motion_ddot": 0,
        "tle_line1": "1 32783U 08021A   25345.18221884  .00001560  00000+0  21812-3 0  9995",
        "tle_line2": "2 32783  97.7928  35.0540 0012025   9.5945 350.5494 14.78933201951010"
      },
      "geometry": {
        "type": "Point",
        "coordinates": [
          48.47512350416704,
          -59.11444132341492
        ]
      }
    },
    {
      "type": "Feature",
      "properties": {
        "norad_id": 33320,
        "name": "HUANJING 1A (HJ-1A)",
        "group": "resource",
        "lat": 35.616802590124166,
        "lon": 159.25842914244538,
        "alt_km": 619.950698896223,
        "timestamp": "2025-12-11T08:58:26.770822+00:00",
        "meta_object_name": "HUANJING 1A (HJ-1A)",
        "meta_object_id": "2008-041A",
        "meta_epoch": "2025-12-11T05:05:28.648032",
        "meta_mean_motion": 14.83388594,
        "meta_eccentricity": 0.0020333,
        "meta_inclination": 97.6547,
        "meta_ra_of_asc_node": 333.5746,
        "meta_arg_of_pericenter": 39.2916,
        "meta_mean_anomaly": 320.977,
        "meta_ephemeris_type": 0,
        "meta_classification_type": "U",
        "meta_norad_cat_id": 33320,
        "meta_element_set_no": 999,
        "meta_rev_at_epoch": 93053,
        "meta_bstar": 0.00037616,
        "meta_mean_motion_dot": 3.046e-05,
        "meta_mean_motion_ddot": 0,
        "tle_line1": "1 33320U 08041A   25345.21213713  .00003046  00000+0  37616-3 0  9991",
        "tle_line2": "2 33320  97.6547 333.5746 0020333  39.2916 320.9770 14.83388594930534"
      },
      "geometry": {
        "type": "Point",
        "coordinates": [
          159.25842914244538,
          35.616802590124166
        ]
      }
    },
    {
      "type": "Feature",
      "properties": {
        "norad_id": 33321,
        "name": "HUANJING 1B (HJ-1B)",
        "group": "resource",
        "lat": 7.008880408087073,
        "lon": -23.515652141080373,
        "alt_km": 614.4620980928594,
        "timestamp": "2025-12-11T08:58:26.770833+00:00",
        "meta_object_name": "HUANJING 1B (HJ-1B)",
        "meta_object_id": "2008-041B",
        "meta_epoch": "2025-12-11T05:42:11.818656",
        "meta_mean_motion": 14.82814578,
        "meta_eccentricity": 0.0038282,
        "meta_inclination": 97.6403,
        "meta_ra_of_asc_node": 337.2997,
        "meta_arg_of_pericenter": 80.3351,
        "meta_mean_anomaly": 280.2185,
        "meta_ephemeris_type": 0,
        "meta_classification_type": "U",
        "meta_norad_cat_id": 33321,
        "meta_element_set_no": 999,
        "meta_rev_at_epoch": 93055,
        "meta_bstar": 0.00022962,
        "meta_mean_motion_dot": 1.83e-05,
        "meta_mean_motion_ddot": 0,
        "tle_line1": "1 33321U 08041B   25345.23763679  .00001830  00000+0  22962-3 0  9992",
        "tle_line2": "2 33321  97.6403 337.2997 0038282  80.3351 280.2185 14.82814578930552"
      },
      "geometry": {
        "type": "Point",
        "coordinates": [
          -23.515652141080373,
          7.008880408087073
        ]
      }
    },
    {
      "type": "Feature",
      "properties": {
        "norad_id": 33331,
        "name": "GEOEYE 1",
        "group": "resource",
        "lat": 78.72885670197678,
        "lon": 10.875487343349066,
        "alt_km": 672.1616402115069,
        "timestamp": "2025-12-11T08:58:26.770844+00:00",
        "meta_object_name": "GEOEYE 1",
        "meta_object_id": "2008-042A",
        "meta_epoch": "2025-12-11T05:19:17.301792",
        "meta_mean_motion": 14.6480927,
        "meta_eccentricity": 0.0002746,
        "meta_inclination": 98.1254,
        "meta_ra_of_asc_node": 56.5214,
        "meta_arg_of_pericenter": 283.1614,
        "meta_mean_anomaly": 76.9282,
        "meta_ephemeris_type": 0,
        "meta_classification_type": "U",
        "meta_norad_cat_id": 33331,
        "meta_element_set_no": 999,
        "meta_rev_at_epoch": 92263,
        "meta_bstar": 0.00018686,
        "meta_mean_motion_dot": 9.49e-06,
        "meta_mean_motion_ddot": 0,
        "tle_line1": "1 33331U 08042A   25345.22172803  .00000949  00000+0  18686-3 0  9994",
        "tle_line2": "2 33331  98.1254  56.5214 0002746 283.1614  76.9282 14.64809270922638"
      },
      "geometry": {
        "type": "Point",
        "coordinates": [
          10.875487343349066,
          78.72885670197678
        ]
      }
    },
    {
      "type": "Feature",
      "properties": {
        "norad_id": 33396,
        "name": "THEOS",
        "group": "resource",
        "lat": 21.15739325143595,
        "lon": -133.1443997737411,
        "alt_km": 824.474101000571,
        "timestamp": "2025-12-11T08:58:26.770855+00:00",
        "meta_object_name": "THEOS",
        "meta_object_id": "2008-049A",
        "meta_epoch": "2025-12-11T04:50:54.139200",
        "meta_mean_motion": 14.20096201,
        "meta_eccentricity": 0.0001129,
        "meta_inclination": 98.5865,
        "meta_ra_of_asc_node": 43.3365,
        "meta_arg_of_pericenter": 96.3555,
        "meta_mean_anomaly": 263.775,
        "meta_ephemeris_type": 0,
        "meta_classification_type": "U",
        "meta_norad_cat_id": 33396,
        "meta_element_set_no": 999,
        "meta_rev_at_epoch": 89128,
        "meta_bstar": 5.1415e-05,
        "meta_mean_motion_dot": 6.7e-07,
        "meta_mean_motion_ddot": 0,
        "tle_line1": "1 33396U 08049A   25345.20201550  .00000067  00000+0  51415-4 0  9991",
        "tle_line2": "2 33396  98.5865  43.3365 0001129  96.3555 263.7750 14.20096201891280"
      },
      "geometry": {
        "type": "Point",
        "coordinates": [
          -133.1443997737411,
          21.15739325143595
        ]
      }
    }
  ]
}